CCSDS_OMM_VERS = 2.0
CREATION_DATE  = 
ORIGINATOR     = 

OBJECT_NAME    = DELTA 1 R/B
OBJECT_ID      = 1989-089B
CENTER_NAME    = EARTH
REF_FRAME      = TEME
TIME_SYSTEM    = UTC
MEAN_ELEMENT_THEORY = SGP/SGP4

EPOCH          = 2025-10-27T15:05:50.492832
MEAN_MOTION    = 14.50515126
ECCENTRICITY   = .0069059
INCLINATION    = 97.0805
RA_OF_ASC_NODE = 164.1643
ARG_OF_PERICENTER = 181.8582
MEAN_ANOMALY   = 178.2370

EPHEMERIS_TYPE = 0
CLASSIFICATION_TYPE = U
NORAD_CAT_ID   = 20323
ELEMENT_SET_NO = 999
REV_AT_EPOCH   = 87644
BSTAR          = .12101E-3
MEAN_MOTION_DOT = .453E-5
MEAN_MOTION_DDOT = 0

CCSDS_OMM_VERS = 2.0
CREATION_DATE  = 
ORIGINATOR     = 

OBJECT_NAME    = ARIANE 40 R/B
OBJECT_ID      = 1990-005H
CENTER_NAME    = EARTH
REF_FRAME      = TEME
TIME_SYSTEM    = UTC
MEAN_ELEMENT_THEORY = SGP/SGP4

EPOCH          = 2025-10-27T10:55:11.795232
MEAN_MOTION    = 14.39744930
ECCENTRICITY   = .0009125
INCLINATION    = 98.3305
RA_OF_ASC_NODE = 359.9269
ARG_OF_PERICENTER = 242.3496
MEAN_ANOMALY   = 117.6767

EPHEMERIS_TYPE = 0
CLASSIFICATION_TYPE = U
NORAD_CAT_ID   = 20443
ELEMENT_SET_NO = 999
REV_AT_EPOCH   = 87363
BSTAR          = .16428E-3
MEAN_MOTION_DOT = .472E-5
MEAN_MOTION_DDOT = 0

CCSDS_OMM_VERS = 2.0
CREATION_DATE  = 
ORIGINATOR     = 

OBJECT_NAME    = DELTA 2 R/B(1)
OBJECT_ID      = 1990-008B
CENTER_NAME    = EARTH
REF_FRAME      = TEME
TIME_SYSTEM    = UTC
MEAN_ELEMENT_THEORY = SGP/SGP4

EPOCH          = 2025-10-27T08:39:15.183360
MEAN_MOTION    = 15.41051700
ECCENTRICITY   = .0118456
INCLINATION    = 35.6081
RA_OF_ASC_NODE = 319.0607
ARG_OF_PERICENTER = 116.6940
MEAN_ANOMALY   = 244.5973

EPHEMERIS_TYPE = 0
CLASSIFICATION_TYPE = U
NORAD_CAT_ID   = 20453
ELEMENT_SET_NO = 999
REV_AT_EPOCH   = 90546
BSTAR          = .59044E-3
MEAN_MOTION_DOT = .32467E-3
MEAN_MOTION_DDOT = 0

CCSDS_OMM_VERS = 2.0
CREATION_DATE  = 
ORIGINATOR     = 

OBJECT_NAME    = COSMOS 2058
OBJECT_ID      = 1990-010A
CENTER_NAME    = EARTH
REF_FRAME      = TEME
TIME_SYSTEM    = UTC
MEAN_ELEMENT_THEORY = SGP/SGP4

EPOCH          = 2025-10-27T20:11:01.754592
MEAN_MOTION    = 15.09969229
ECCENTRICITY   = .0011375
INCLINATION    = 82.4702
RA_OF_ASC_NODE = 178.1730
ARG_OF_PERICENTER = 68.5131
MEAN_ANOMALY   = 291.7310

EPHEMERIS_TYPE = 0
CLASSIFICATION_TYPE = U
NORAD_CAT_ID   = 20465
ELEMENT_SET_NO = 999
REV_AT_EPOCH   = 92218
BSTAR          = .26512E-3
MEAN_MOTION_DOT = .4337E-4
MEAN_MOTION_DDOT = 0

CCSDS_OMM_VERS = 2.0
CREATION_DATE  = 
ORIGINATOR     = 

OBJECT_NAME    = SL-14 R/B
OBJECT_ID      = 1990-010B
CENTER_NAME    = EARTH
REF_FRAME      = TEME
TIME_SYSTEM    = UTC
MEAN_ELEMENT_THEORY = SGP/SGP4

EPOCH          = 2025-10-27T12:58:20.460576
MEAN_MOTION    = 14.83407475
ECCENTRICITY   = .0020369
INCLINATION    = 82.5053
RA_OF_ASC_NODE = 32.4252
ARG_OF_PERICENTER = 22.8429
MEAN_ANOMALY   = 337.3687

EPHEMERIS_TYPE = 0
CLASSIFICATION_TYPE = U
NORAD_CAT_ID   = 20466
ELEMENT_SET_NO = 999
REV_AT_EPOCH   = 90874
BSTAR          = .80147E-4
MEAN_MOTION_DOT = .683E-5
MEAN_MOTION_DDOT = 0

CCSDS_OMM_VERS = 2.0
CREATION_DATE  = 
ORIGINATOR     = 

OBJECT_NAME    = SL-14 R/B
OBJECT_ID      = 1990-018B
CENTER_NAME    = EARTH
REF_FRAME      = TEME
TIME_SYSTEM    = UTC
MEAN_ELEMENT_THEORY = SGP/SGP4

EPOCH          = 2025-10-27T10:19:32.924352
MEAN_MOTION    = 14.81983015
ECCENTRICITY   = .0016795
INCLINATION    = 82.5228
RA_OF_ASC_NODE = 347.6513
ARG_OF_PERICENTER = 165.6708
MEAN_ANOMALY   = 194.4987

EPHEMERIS_TYPE = 0
CLASSIFICATION_TYPE = U
NORAD_CAT_ID   = 20511
ELEMENT_SET_NO = 999
REV_AT_EPOCH   = 90284
BSTAR          = .72578E-4
MEAN_MOTION_DOT = .6E-5
MEAN_MOTION_DDOT = 0

CCSDS_OMM_VERS = 2.0
CREATION_DATE  = 
ORIGINATOR     = 

OBJECT_NAME    = HST
OBJECT_ID      = 1990-037B
CENTER_NAME    = EARTH
REF_FRAME      = TEME
TIME_SYSTEM    = UTC
MEAN_ELEMENT_THEORY = SGP/SGP4

EPOCH          = 2025-10-27T20:45:13.870368
MEAN_MOTION    = 15.27180140
ECCENTRICITY   = .000215
INCLINATION    = 28.4672
RA_OF_ASC_NODE = 224.5359
ARG_OF_PERICENTER = 82.0603
MEAN_ANOMALY   = 278.0236

EPHEMERIS_TYPE = 0
CLASSIFICATION_TYPE = U
NORAD_CAT_ID   = 20580
ELEMENT_SET_NO = 999
REV_AT_EPOCH   = 75297
BSTAR          = .34362E-3
MEAN_MOTION_DOT = .9649E-4
MEAN_MOTION_DDOT = 0

CCSDS_OMM_VERS = 2.0
CREATION_DATE  = 
ORIGINATOR     = 

OBJECT_NAME    = SL-16 R/B
OBJECT_ID      = 1990-046B
CENTER_NAME    = EARTH
REF_FRAME      = TEME
TIME_SYSTEM    = UTC
MEAN_ELEMENT_THEORY = SGP/SGP4

EPOCH          = 2025-10-27T20:47:27.102624
MEAN_MOTION    = 14.14991210
ECCENTRICITY   = .0013037
INCLINATION    = 71.0000
RA_OF_ASC_NODE = 216.8568
ARG_OF_PERICENTER = 154.8337
MEAN_ANOMALY   = 205.3424

EPHEMERIS_TYPE = 0
CLASSIFICATION_TYPE = U
NORAD_CAT_ID   = 20625
ELEMENT_SET_NO = 999
REV_AT_EPOCH   = 82960
BSTAR          = .12036E-3
MEAN_MOTION_DOT = .186E-5
MEAN_MOTION_DDOT = 0

CCSDS_OMM_VERS = 2.0
CREATION_DATE  = 
ORIGINATOR     = 

OBJECT_NAME    = COSMOS 2084
OBJECT_ID      = 1990-055A
CENTER_NAME    = EARTH
REF_FRAME      = TEME
TIME_SYSTEM    = UTC
MEAN_ELEMENT_THEORY = SGP/SGP4

EPOCH          = 2025-10-27T18:47:22.123680
MEAN_MOTION    = 15.04590432
ECCENTRICITY   = .0039483
INCLINATION    = 62.7910
RA_OF_ASC_NODE = 68.5349
ARG_OF_PERICENTER = 169.2490
MEAN_ANOMALY   = 190.9463

EPHEMERIS_TYPE = 0
CLASSIFICATION_TYPE = U
NORAD_CAT_ID   = 20663
ELEMENT_SET_NO = 999
REV_AT_EPOCH   = 91631
BSTAR          = .39338E-3
MEAN_MOTION_DOT = .5441E-4
MEAN_MOTION_DDOT = 0

CCSDS_OMM_VERS = 2.0
CREATION_DATE  = 
ORIGINATOR     = 

OBJECT_NAME    = SL-6 R/B(2)
OBJECT_ID      = 1990-055D
CENTER_NAME    = EARTH
REF_FRAME      = TEME
TIME_SYSTEM    = UTC
MEAN_ELEMENT_THEORY = SGP/SGP4

EPOCH          = 2025-10-27T12:36:08.250336
MEAN_MOTION    = 15.02736972
ECCENTRICITY   = .00107
INCLINATION    = 62.7849
RA_OF_ASC_NODE = 346.4058
ARG_OF_PERICENTER = 266.1988
MEAN_ANOMALY   = 93.7887

EPHEMERIS_TYPE = 0
CLASSIFICATION_TYPE = U
NORAD_CAT_ID   = 20666
ELEMENT_SET_NO = 999
REV_AT_EPOCH   = 91817
BSTAR          = .2329E-3
MEAN_MOTION_DOT = .2935E-4
MEAN_MOTION_DDOT = 0

CCSDS_OMM_VERS = 2.0
CREATION_DATE  = 
ORIGINATOR     = 

OBJECT_NAME    = SL-8 R/B
OBJECT_ID      = 1990-078B
CENTER_NAME    = EARTH
REF_FRAME      = TEME
TIME_SYSTEM    = UTC
MEAN_ELEMENT_THEORY = SGP/SGP4

EPOCH          = 2025-10-27T15:10:58.097568
MEAN_MOTION    = 14.83641094
ECCENTRICITY   = .0383802
INCLINATION    = 82.9086
RA_OF_ASC_NODE = 10.4836
ARG_OF_PERICENTER = 99.8649
MEAN_ANOMALY   = 264.6115

EPHEMERIS_TYPE = 0
CLASSIFICATION_TYPE = U
NORAD_CAT_ID   = 20775
ELEMENT_SET_NO = 999
REV_AT_EPOCH   = 78953
BSTAR          = .47699E-3
MEAN_MOTION_DOT = .15413E-3
MEAN_MOTION_DDOT = 0

CCSDS_OMM_VERS = 2.0
CREATION_DATE  = 
ORIGINATOR     = 

OBJECT_NAME    = SL-8 R/B
OBJECT_ID      = 1991-006B
CENTER_NAME    = EARTH
REF_FRAME      = TEME
TIME_SYSTEM    = UTC
MEAN_ELEMENT_THEORY = SGP/SGP4

EPOCH          = 2025-10-27T20:16:39.099072
MEAN_MOTION    = 13.77479360
ECCENTRICITY   = .0023659
INCLINATION    = 82.9394
RA_OF_ASC_NODE = 268.8556
ARG_OF_PERICENTER = 49.6746
MEAN_ANOMALY   = 15.0436

EPHEMERIS_TYPE = 0
CLASSIFICATION_TYPE = U
NORAD_CAT_ID   = 21088
ELEMENT_SET_NO = 999
REV_AT_EPOCH   = 74578
BSTAR          = .17897E-3
MEAN_MOTION_DOT = .194E-5
MEAN_MOTION_DDOT = 0

