DELTA 1 R/B             
1 20323U 89089B   25300.62905663  .00000453  00000+0  12101-3 0  9990
2 20323  97.0805 164.1643 0069059 181.8582 178.2370 14.50515126876445
ARIANE 40 R/B           
1 20443U 90005H   25300.45499763  .00000472  00000+0  16428-3 0  9990
2 20443  98.3305 359.9269 0009125 242.3496 117.6767 14.39744930873639
DELTA 2 R/B(1)          
1 20453U 90008B   25300.36059240  .00032467  00000+0  59044-3 0  9996
2 20453  35.6081 319.0607 0118456 116.6940 244.5973 15.41051700905469
COSMOS 2058             
1 20465U 90010A   25300.84099253  .00004337  00000+0  26512-3 0  9992
2 20465  82.4702 178.1730 0011375  68.5131 291.7310 15.09969229922187
SL-14 R/B               
1 20466U 90010B   25300.54051459  .00000683  00000+0  80147-4 0  9991
2 20466  82.5053  32.4252 0020369  22.8429 337.3687 14.83407475908746
SL-14 R/B               
1 20511U 90018B   25300.43024218  .00000600  00000+0  72578-4 0  9999
2 20511  82.5228 347.6513 0016795 165.6708 194.4987 14.81983015902843
HST                     
1 20580U 90037B   25300.86474387  .00009649  00000+0  34362-3 0  9999
2 20580  28.4672 224.5359 0002150  82.0603 278.0236 15.27180140752970
SL-16 R/B               
1 20625U 90046B   25300.86628591  .00000186  00000+0  12036-3 0  9998
2 20625  71.0000 216.8568 0013037 154.8337 205.3424 14.14991210829603
COSMOS 2084             
1 20663U 90055A   25300.78289495  .00005441  00000+0  39338-3 0  9990
2 20663  62.7910  68.5349 0039483 169.2490 190.9463 15.04590432916312
SL-6 R/B(2)             
1 20666U 90055D   25300.52509549  .00002935  00000+0  23290-3 0  9995
2 20666  62.7849 346.4058 0010700 266.1988  93.7887 15.02736972918176
SL-8 R/B                
1 20775U 90078B   25300.63261687  .00015413  00000+0  47699-3 0  9995
2 20775  82.9086  10.4836 0383802  99.8649 264.6115 14.83641094789534
SL-8 R/B                
1 21088U 91006B   25300.84489698  .00000194  00000+0  17897-3 0  9999
2 21088  82.9394 268.8556 0023659  49.6746  15.0436 13.77479360745784
